[{"OBJECT_NAME":"STARLINK-1585","OBJECT_ID":"2020-057A","EPOCH":"2026-03-10T00:00:02.999808","MEAN_MOTION":15.83808209,"ECCENTRICITY":9.633e-5,"INCLINATION":53.0404,"RA_OF_ASC_NODE":245.461,"ARG_OF_PERICENTER":185.9562,"MEAN_ANOMALY":86.7095,"EPHEMERIS_TYPE":0,"CLASSIFICATION_TYPE":"U","NORAD_CAT_ID":46117,"ELEMENT_SET_NO":999,"REV_AT_EPOCH":598,"BSTAR":0.0013789773,"MEAN_MOTION_DOT":0.00323412,"MEAN_MOTION_DDOT":0},{"OBJECT_NAME":"STARLINK-36714","OBJECT_ID":"2026-036W","EPOCH":"2026-03-09T21:16:14.007072","MEAN_MOTION":15.82116801,"ECCENTRICITY":0.00019285,"INCLINATION":42.9993,"RA_OF_ASC_NODE":248.3898,"ARG_OF_PERICENTER":254.7583,"MEAN_ANOMALY":105.3076,"EPHEMERIS_TYPE":0,"CLASSIFICATION_TYPE":"U","NORAD_CAT_ID":67924,"ELEMENT_SET_NO":999,"REV_AT_EPOCH":370,"BSTAR":0.0014691132,"MEAN_MOTION_DOT":0.00322113,"MEAN_MOTION_DDOT":0}]
